start=new Date('2022-02-27T00:00:00.000Z').valueOf();
sats=[{"TLE_LINE2":"2 46067  53.0536 223.8766 0001576  72.4160 287.7001 15.06397898 87477","EPOCH":"2022-02-26T20:52:27.118848","CENTER_NAME":"EARTH","MEAN_MOTION_DDOT":"0.0000000000000","CLASSIFICATION_TYPE":"U","REF_FRAME":"TEME","COUNTRY_CODE":"US","MEAN_MOTION":"15.06397898","LAUNCH_DATE":"2020-08-07","ARG_OF_PERICENTER":"72.4160","MEAN_ELEMENT_THEORY":"SGP4","RCS_SIZE":"LARGE","REV_AT_EPOCH":"8747","TLE_LINE1":"1 46067U 20055AS  22057.86975832  .00000393  00000-0  45251-4 0  9995","EPHEMERIS_TYPE":"0","APOAPSIS":"548.311","OBJECT_ID":"2020-055AS","FILE":"3327391","NORAD_CAT_ID":"46067","ECCENTRICITY":"0.00015760","GP_ID":"197157571","TIME_SYSTEM":"UTC","INCLINATION":"53.0536","PERIOD":"95.592","PERIAPSIS":"546.129","MEAN_ANOMALY":"287.7001","BSTAR":"0.00004525100000","OBJECT_NAME":"STARLINK-1529","SEMIMAJOR_AXIS":"6925.355","MEAN_MOTION_DOT":"0.00000393","ELEMENT_SET_NO":"999","SITE":"AFETR","RA_OF_ASC_NODE":"223.8766","OBJECT_TYPE":"PAYLOAD","DECAY_DATE":null},{"GP_ID":"197157822","TIME_SYSTEM":"UTC","FILE":"3327391","OBJECT_ID":"2020-055AT","APOAPSIS":"548.223","NORAD_CAT_ID":"46068","ECCENTRICITY":"0.00014510","SITE":"AFETR","MEAN_MOTION_DOT":"-0.00000015","SEMIMAJOR_AXIS":"6925.353","OBJECT_NAME":"STARLINK-1532","ELEMENT_SET_NO":"999","OBJECT_TYPE":"PAYLOAD","RA_OF_ASC_NODE":"224.1161","DECAY_DATE":null,"INCLINATION":"53.0546","PERIOD":"95.592","MEAN_ANOMALY":"292.2154","PERIAPSIS":"546.213","BSTAR":"0.00001787600000","REF_FRAME":"TEME","CLASSIFICATION_TYPE":"U","MEAN_MOTION_DDOT":"0.0000000000000","CENTER_NAME":"EARTH","COUNTRY_CODE":"US","MEAN_MOTION":"15.06398537","EPOCH":"2022-02-26T19:32:50.475840","TLE_LINE2":"2 46068  53.0546 224.1161 0001451  67.8989 292.2154 15.06398537 87461","TLE_LINE1":"1 46068U 20055AT  22057.81447310 -.00000015  00000-0  17876-4 0  9990","EPHEMERIS_TYPE":"0","LAUNCH_DATE":"2020-08-07","ARG_OF_PERICENTER":"67.8989","MEAN_ELEMENT_THEORY":"SGP4","REV_AT_EPOCH":"8746","RCS_SIZE":"LARGE"},{"TIME_SYSTEM":"UTC","GP_ID":"197158569","OBJECT_ID":"2020-055AU","FILE":"3327391","APOAPSIS":"548.132","ECCENTRICITY":"0.00013580","NORAD_CAT_ID":"46069","SITE":"AFETR","SEMIMAJOR_AXIS":"6925.326","MEAN_MOTION_DOT":"0.00000320","ELEMENT_SET_NO":"999","OBJECT_NAME":"STARLINK-1533","DECAY_DATE":null,"OBJECT_TYPE":"PAYLOAD","RA_OF_ASC_NODE":"223.7487","MEAN_ANOMALY":"284.5154","PERIAPSIS":"546.251","INCLINATION":"53.0534","PERIOD":"95.592","BSTAR":"0.00004034300000","COUNTRY_CODE":"US","REF_FRAME":"TEME","CLASSIFICATION_TYPE":"U","MEAN_MOTION_DDOT":"0.0000000000000","CENTER_NAME":"EARTH","MEAN_MOTION":"15.06407229","EPOCH":"2022-02-26T21:29:36.838464","TLE_LINE2":"2 46069  53.0534 223.7487 0001358  75.5985 284.5154 15.06407229 87488","TLE_LINE1":"1 46069U 20055AU  22057.89556526  .00000320  00000-0  40343-4 0  9992","EPHEMERIS_TYPE":"0","ARG_OF_PERICENTER":"75.5985","LAUNCH_DATE":"2020-08-07","REV_AT_EPOCH":"8748","RCS_SIZE":"LARGE","MEAN_ELEMENT_THEORY":"SGP4"},{"SEMIMAJOR_AXIS":"6925.357","OBJECT_NAME":"STARLINK-1536","MEAN_MOTION_DOT":"0.00001612","ELEMENT_SET_NO":"999","SITE":"AFETR","DECAY_DATE":null,"RA_OF_ASC_NODE":"224.2767","OBJECT_TYPE":"PAYLOAD","PERIAPSIS":"546.163","MEAN_ANOMALY":"282.0944","PERIOD":"95.592","INCLINATION":"53.0554","BSTAR":"0.00012710000000","TIME_SYSTEM":"UTC","GP_ID":"197156821","APOAPSIS":"548.281","OBJECT_ID":"2020-055AV","FILE":"3327391","NORAD_CAT_ID":"46070","ECCENTRICITY":"0.00015290","TLE_LINE1":"1 46070U 20055AV  22057.77761092  .00001612  00000-0  12710-3 0  9998","EPHEMERIS_TYPE":"0","LAUNCH_DATE":"2020-08-07","ARG_OF_PERICENTER":"78.0217","RCS_SIZE":"LARGE","REV_AT_EPOCH":"8746","MEAN_ELEMENT_THEORY":"SGP4","COUNTRY_CODE":"US","MEAN_MOTION_DDOT":"0.0000000000000","CLASSIFICATION_TYPE":"U","CENTER_NAME":"EARTH","REF_FRAME":"TEME","MEAN_MOTION":"15.06397187","TLE_LINE2":"2 46070  53.0554 224.2767 0001529  78.0217 282.0944 15.06397187 87464","EPOCH":"2022-02-26T18:39:45.583488"},{"OBJECT_TYPE":"PAYLOAD","RA_OF_ASC_NODE":"223.9028","DECAY_DATE":null,"SITE":"AFETR","SEMIMAJOR_AXIS":"6925.341","MEAN_MOTION_DOT":"0.00002506","OBJECT_NAME":"STARLINK-1538","ELEMENT_SET_NO":"999","BSTAR":"0.00018706000000","PERIOD":"95.592","INCLINATION":"53.0529","MEAN_ANOMALY":"291.3996","PERIAPSIS":"546.258","GP_ID":"197157071","TIME_SYSTEM":"UTC","NORAD_CAT_ID":"46071","ECCENTRICITY":"0.00013700","FILE":"3327391","OBJECT_ID":"2020-055AW","APOAPSIS":"548.155","EPHEMERIS_TYPE":"0","TLE_LINE1":"1 46071U 20055AW  22057.86238385  .00002506  00000-0  18706-3 0  9997","MEAN_ELEMENT_THEORY":"SGP4","REV_AT_EPOCH":"8747","RCS_SIZE":"LARGE","LAUNCH_DATE":"2020-08-07","ARG_OF_PERICENTER":"68.7139","MEAN_MOTION":"15.06402334","REF_FRAME":"TEME","MEAN_MOTION_DDOT":"0.0000000000000","CLASSIFICATION_TYPE":"U","CENTER_NAME":"EARTH","COUNTRY_CODE":"US","EPOCH":"2022-02-26T20:41:49.964640","TLE_LINE2":"2 46071  53.0529 223.9028 0001370  68.7139 291.3996 15.06402334 87478"},{"ARG_OF_PERICENTER":"64.5443","LAUNCH_DATE":"2020-08-07","MEAN_ELEMENT_THEORY":"SGP4","REV_AT_EPOCH":"8745","RCS_SIZE":"LARGE","TLE_LINE1":"1 46072U 20055AX  22057.82090563 -.00002047  00000-0 -11855-3 0  9998","EPHEMERIS_TYPE":"0","EPOCH":"2022-02-26T19:42:06.246432","TLE_LINE2":"2 46072  53.0563 224.0949 0001748  64.5443 295.5726 15.06393709 87452","REF_FRAME":"TEME","MEAN_MOTION_DDOT":"0.0000000000000","CLASSIFICATION_TYPE":"U","CENTER_NAME":"EARTH","COUNTRY_CODE":"US","MEAN_MOTION":"15.06393709","INCLINATION":"53.0563","PERIOD":"95.593","MEAN_ANOMALY":"295.5726","PERIAPSIS":"546.022","BSTAR":"-0.00011855000000","SITE":"AFETR","SEMIMAJOR_AXIS":"6925.368","OBJECT_NAME":"STARLINK-1539","MEAN_MOTION_DOT":"-0.00002047","ELEMENT_SET_NO":"999","OBJECT_TYPE":"PAYLOAD","RA_OF_ASC_NODE":"224.0949","DECAY_DATE":null,"OBJECT_ID":"2020-055AX","FILE":"3327391","APOAPSIS":"548.443","ECCENTRICITY":"0.00017480","NORAD_CAT_ID":"46072","GP_ID":"197158323","TIME_SYSTEM":"UTC"},{"APOAPSIS":"548.261","OBJECT_ID":"2020-055AY","FILE":"3327391","NORAD_CAT_ID":"46073","ECCENTRICITY":"0.00014770","TIME_SYSTEM":"UTC","GP_ID":"197158069","PERIAPSIS":"546.215","MEAN_ANOMALY":"287.1913","PERIOD":"95.593","INCLINATION":"53.0543","BSTAR":"0.00003756900000","SEMIMAJOR_AXIS":"6925.373","ELEMENT_SET_NO":"999","MEAN_MOTION_DOT":"0.00000278","OBJECT_NAME":"STARLINK-1542","SITE":"AFETR","DECAY_DATE":null,"RA_OF_ASC_NODE":"224.0327","OBJECT_TYPE":"PAYLOAD","TLE_LINE2":"2 46073  53.0543 224.0327 0001477  72.9237 287.1913 15.06392056 87464","EPOCH":"2022-02-26T20:04:41.750112","COUNTRY_CODE":"US","CENTER_NAME":"EARTH","MEAN_MOTION_DDOT":"0.0000000000000","CLASSIFICATION_TYPE":"U","REF_FRAME":"TEME","MEAN_MOTION":"15.06392056","ARG_OF_PERICENTER":"72.9237","LAUNCH_DATE":"2020-08-07","RCS_SIZE":"LARGE","REV_AT_EPOCH":"8746","MEAN_ELEMENT_THEORY":"SGP4","TLE_LINE1":"1 46073U 20055AY  22057.83659433  .00000278  00000-0  37569-4 0  9990","EPHEMERIS_TYPE":"0"},{"TIME_SYSTEM":"UTC","GP_ID":"197157322","FILE":"3327391","OBJECT_ID":"2020-055AZ","APOAPSIS":"548.492","ECCENTRICITY":"0.00018490","NORAD_CAT_ID":"46074","SITE":"AFETR","MEAN_MOTION_DOT":"-0.00000155","SEMIMAJOR_AXIS":"6925.346","OBJECT_NAME":"STARLINK-1549","ELEMENT_SET_NO":"999","DECAY_DATE":null,"OBJECT_TYPE":"PAYLOAD","RA_OF_ASC_NODE":"224.0852","MEAN_ANOMALY":"301.1721","PERIAPSIS":"545.931","PERIOD":"95.592","INCLINATION":"53.0537","BSTAR":"0.00000847070000","COUNTRY_CODE":"US","REF_FRAME":"TEME","CLASSIFICATION_TYPE":"U","MEAN_MOTION_DDOT":"0.0000000000000","CENTER_NAME":"EARTH","MEAN_MOTION":"15.06400764","EPOCH":"2022-02-26T19:43:27.173856","TLE_LINE2":"2 46074  53.0537 224.0852 0001849  58.9449 301.1721 15.06400764 87452","TLE_LINE1":"1 46074U 20055AZ  22057.82184229 -.00000155  00000-0  84707-5 0  9998","EPHEMERIS_TYPE":"0","ARG_OF_PERICENTER":"58.9449","LAUNCH_DATE":"2020-08-07","REV_AT_EPOCH":"8745","RCS_SIZE":"LARGE","MEAN_ELEMENT_THEORY":"SGP4"},{"EPOCH":"2022-02-26T20:20:36.458880","TLE_LINE2":"2 46075  53.0531 223.9726 0001490  70.2308 289.8841 15.06397235 87462","COUNTRY_CODE":"US","REF_FRAME":"TEME","MEAN_MOTION_DDOT":"0.0000000000000","CENTER_NAME":"EARTH","CLASSIFICATION_TYPE":"U","MEAN_MOTION":"15.06397235","LAUNCH_DATE":"2020-08-07","ARG_OF_PERICENTER":"70.2308","REV_AT_EPOCH":"8746","RCS_SIZE":"LARGE","MEAN_ELEMENT_THEORY":"SGP4","TLE_LINE1":"1 46075U 20055BA  22057.84764420  .00001365  00000-0  11053-3 0  9993","EPHEMERIS_TYPE":"0","FILE":"3327391","OBJECT_ID":"2020-055BA","APOAPSIS":"548.254","NORAD_CAT_ID":"46075","ECCENTRICITY":"0.00014900","TIME_SYSTEM":"UTC","GP_ID":"197157572","MEAN_ANOMALY":"289.8841","PERIAPSIS":"546.190","INCLINATION":"53.0531","PERIOD":"95.592","BSTAR":"0.00011053000000","SITE":"AFETR","SEMIMAJOR_AXIS":"6925.357","OBJECT_NAME":"STARLINK-1551","MEAN_MOTION_DOT":"0.00001365","ELEMENT_SET_NO":"999","DECAY_DATE":null,"OBJECT_TYPE":"PAYLOAD","RA_OF_ASC_NODE":"223.9726"},{"MEAN_MOTION":"15.06401766","COUNTRY_CODE":"US","MEAN_MOTION_DDOT":"0.0000000000000","CENTER_NAME":"EARTH","CLASSIFICATION_TYPE":"U","REF_FRAME":"TEME","TLE_LINE2":"2 46076  53.0539 223.8643 0001695  66.6368 293.4800 15.06401766 87450","EPOCH":"2022-02-26T20:57:45.704160","EPHEMERIS_TYPE":"0","TLE_LINE1":"1 46076U 20055BB  22057.87344565 -.00000028  00000-0  17003-4 0  9999","RCS_SIZE":"LARGE","REV_AT_EPOCH":"8745","MEAN_ELEMENT_THEORY":"SGP4","ARG_OF_PERICENTER":"66.6368","LAUNCH_DATE":"2020-08-07","TIME_SYSTEM":"UTC","GP_ID":"197157823","NORAD_CAT_ID":"46076","ECCENTRICITY":"0.00016950","APOAPSIS":"548.382","FILE":"3327391","OBJECT_ID":"2020-055BB","DECAY_DATE":null,"RA_OF_ASC_NODE":"223.8643","OBJECT_TYPE":"PAYLOAD","SEMIMAJOR_AXIS":"6925.343","MEAN_MOTION_DOT":"-0.00000028","OBJECT_NAME":"STARLINK-1552","ELEMENT_SET_NO":"999","SITE":"AFETR","BSTAR":"0.00001700300000","PERIAPSIS":"546.034","MEAN_ANOMALY":"293.4800","PERIOD":"95.592","INCLINATION":"53.0539"}];
